[{"OBJECT_NAME":"TIGER-6","OBJECT_ID":"2023-174S","EPOCH":"2026-03-09T17:36:28.852992","MEAN_MOTION":15.68857868,"ECCENTRICITY":0.0003121,"INCLINATION":97.3904,"RA_OF_ASC_NODE":161.9275,"ARG_OF_PERICENTER":155.9023,"MEAN_ANOMALY":204.2385,"EPHEMERIS_TYPE":0,"CLASSIFICATION_TYPE":"U","NORAD_CAT_ID":58272,"ELEMENT_SET_NO":999,"REV_AT_EPOCH":13064,"BSTAR":0.00098002434,"MEAN_MOTION_DOT":0.00113437,"MEAN_MOTION_DDOT":0},{"OBJECT_NAME":"FLOCK 4Q-17","OBJECT_ID":"2023-174AD","EPOCH":"2026-03-09T17:33:32.514048","MEAN_MOTION":15.67180586,"ECCENTRICITY":0.0003312,"INCLINATION":97.3815,"RA_OF_ASC_NODE":160.3254,"ARG_OF_PERICENTER":203.6939,"MEAN_ANOMALY":156.417,"EPHEMERIS_TYPE":0,"CLASSIFICATION_TYPE":"U","NORAD_CAT_ID":58283,"ELEMENT_SET_NO":999,"REV_AT_EPOCH":13057,"BSTAR":0.0017680138,"MEAN_MOTION_DOT":0.0019313,"MEAN_MOTION_DDOT":0}]
